OBJECT_NAME,OBJECT_ID,EPOCH,MEAN_MOTION,ECCENTRICITY,INCLINATION,RA_OF_ASC_NODE,ARG_OF_PERICENTER,MEAN_ANOMALY,EPHEMERIS_TYPE,CLASSIFICATION_TYPE,NORAD_CAT_ID,ELEMENT_SET_NO,REV_AT_EPOCH,BSTAR,MEAN_MOTION_DOT,MEAN_MOTION_DDOT,GROUP
COSMOS 2251 DEB,1993-036ADZ,2026-05-03T05:11:05.348832,14.62838659,0.00511006,74.0224,70.8543,174.04,186.1387,0,U,34946,999,90277,0.00043714237,2.244e-05,0.0,Cosmos 2251 Debris
COSMOS 2251 DEB,1993-036AEC,2026-05-02T21:32:21.909984,14.74826866,0.0079579,74.0174,193.6965,302.3791,56.9697,0,U,34949,999,90442,0.00025691,1.775e-05,0.0,Cosmos 2251 Debris
COSMOS 2251 DEB,1993-036AEG,2026-05-02T22:35:58.214400,14.70601307,0.0053444,74.0894,114.6995,70.1434,317.1778,0,U,34953,999,90203,0.00082327,5.089e-05,0.0,Cosmos 2251 Debris
COSMOS 2251 DEB,1993-036AEJ,2026-05-02T19:31:55.390656,15.03478643,0.00716971,74.0337,318.8232,351.4817,8.5147,0,U,34955,999,92152,0.00049578017,7.111e-05,0.0,Cosmos 2251 Debris
COSMOS 2251 DEB,1993-036AER,2026-05-01T11:12:51.812640,14.47018267,0.00180192,74.0285,292.2386,13.2768,346.8861,0,U,34962,999,89599,0.00041270762,1.478e-05,0.0,Cosmos 2251 Debris
COSMOS 2251 DEB,1993-036AES,2026-05-01T09:58:37.784640,14.52439432,0.00431087,74.168,141.8276,292.3918,67.268,0,U,34963,999,88828,0.0011351029,4.66e-05,0.0,Cosmos 2251 Debris
COSMOS 2251 DEB,1993-036AET,2026-04-04T20:30:38.116512,14.01143709,0.02115039,73.9716,150.8853,344.2145,15.2459,0,U,34964,999,86062,0.0015762029,2.852e-05,0.0,Cosmos 2251 Debris
COSMOS 2251 DEB,1993-036AEU,2026-05-03T06:27:28.445472,14.49051747,0.00263994,74.052,223.4248,312.8994,46.9949,0,U,34965,999,89163,0.00022085715,8.14e-06,0.0,Cosmos 2251 Debris
COSMOS 2251 DEB,1993-036AEW,2026-05-01T21:43:26.217120,14.44908391,0.0039489,73.9935,352.2351,107.8751,252.6719,0,U,34967,999,66981,0.00050635,1.754e-05,0.0,Cosmos 2251 Debris
COSMOS 2251 DEB,1993-036AEX,2026-05-02T00:12:43.542720,14.59640283,0.00856093,74.0394,339.6293,64.9996,296.003,0,U,34968,999,90524,0.00013858995,6.63e-06,0.0,Cosmos 2251 Debris
COSMOS 2251 DEB,1993-036AEY,2026-04-27T07:32:59.907264,14.32495046,0.00758596,74.0115,135.3558,235.946,123.4473,0,U,34969,999,67078,0.00023393444,6.28e-06,0.0,Cosmos 2251 Debris
COSMOS 2251 DEB,1993-036AFA,2026-05-02T23:34:03.815040,14.55874162,0.0070738,73.9801,16.3572,208.2349,171.5917,0,U,34971,999,68228,0.00012327,5.28e-06,0.0,Cosmos 2251 Debris
COSMOS 2251 DEB,1993-036AFB,2026-05-02T07:08:23.680320,14.7580183,0.00366221,73.984,134.577,254.506,119.0195,0,U,34972,999,89722,0.0013278789,9.18e-05,0.0,Cosmos 2251 Debris
COSMOS 2251 DEB,1993-036AFF,2026-05-03T04:31:23.191104,14.79162128,0.00429947,74.0582,28.8506,41.6096,109.2657,0,U,34976,999,90363,0.0012665588,9.52e-05,0.0,Cosmos 2251 Debris
COSMOS 2251 DEB,1993-036AFJ,2026-05-03T00:32:07.476864,14.81979079,0.00453591,74.0397,348.6888,33.8765,326.5294,0,U,34979,999,90311,0.00087580167,7.043e-05,0.0,Cosmos 2251 Debris
COSMOS 2251 DEB,1993-036AFN,2026-04-30T08:36:43.981632,14.4275426,0.00150239,74.0463,354.2797,26.8635,333.3296,0,U,34990,999,89345,0.00029482024,9.57e-06,0.0,Cosmos 2251 Debris
COSMOS 2251 DEB,1993-036AFV,2026-04-30T12:21:11.645568,14.47129209,0.00903814,73.8808,49.5887,356.0769,3.9668,0,U,34997,999,72753,0.0013903375,5.31e-05,0.0,Cosmos 2251 Debris
COSMOS 2251 DEB,1993-036AFW,2026-05-02T19:27:47.453760,14.49911646,0.00206598,74.0093,254.8182,6.2967,146.0469,0,U,34998,999,89464,0.00046604797,1.779e-05,0.0,Cosmos 2251 Debris
COSMOS 2251 DEB,1993-036AFZ,2026-05-02T23:14:51.306432,14.45702293,0.00813177,74.0208,208.1099,313.0963,46.3408,0,U,35012,999,89602,9.9046269e-05,3.36e-06,0.0,Cosmos 2251 Debris
COSMOS 2251 DEB,1993-036AGB,2026-05-03T06:36:11.219904,14.78436798,0.00116276,73.9948,125.4393,248.5111,111.4825,0,U,35014,999,73426,0.001404804,0.00010236,0.0,Cosmos 2251 Debris
COSMOS 2251 DEB,1993-036AGC,2026-05-03T00:18:00.143424,14.4775709,0.00752916,73.9476,329.1191,165.0067,347.6312,0,U,35015,999,67484,0.00075369532,2.858e-05,0.0,Cosmos 2251 Debris
COSMOS 2251 DEB,1993-036AGD,2026-05-02T10:49:40.078848,14.35388854,0.01136131,73.9317,34.6947,280.2567,200.8329,0,U,35016,999,88801,0.00027201491,8.11e-06,0.0,Cosmos 2251 Debris
COSMOS 2251 DEB,1993-036AGF,2026-04-29T14:03:07.503264,13.67557125,0.0346832,73.9765,242.8659,124.0759,239.3794,0,U,35018,999,85070,0.0013358,1.691e-05,0.0,Cosmos 2251 Debris
COSMOS 2251 DEB,1993-036AGH,2026-04-30T03:47:36.401280,14.63041922,0.00896055,74.0453,293.7181,12.1117,348.2174,0,U,35020,999,90262,0.00012278572,6.34e-06,0.0,Cosmos 2251 Debris
COSMOS 2251 DEB,1993-036AGK,2026-05-03T01:17:20.848992,14.61447244,0.00483269,74.0256,51.5827,214.3433,145.4608,0,U,35022,999,61207,0.00033540821,1.658e-05,0.0,Cosmos 2251 Debris
COSMOS 2251 DEB,1993-036AGL,2026-05-03T06:30:21.370752,15.01188221,0.00280874,74.0347,285.7046,331.3022,87.875,0,U,35023,999,90399,0.0015708529,0.00020344,0.0,Cosmos 2251 Debris
COSMOS 2251 DEB,1993-036AGN,2026-05-02T19:19:48.097056,14.73572059,0.00820054,73.9349,146.3541,26.1452,334.3825,0,U,35025,999,90720,0.00031902417,2.155e-05,0.0,Cosmos 2251 Debris
COSMOS 2251 DEB,1993-036AGP,2026-05-03T01:47:13.863264,14.53715023,0.00826497,74.0479,51.9714,130.4367,249.953,0,U,35026,999,90197,5.3103304e-05,2.03e-06,0.0,Cosmos 2251 Debris
COSMOS 2251 DEB,1993-036AGR,2026-05-02T10:50:20.328288,14.56699346,0.00822154,74.0397,3.9237,102.9293,73.2136,0,U,35028,999,90334,8.5344083e-05,3.68e-06,0.0,Cosmos 2251 Debris
COSMOS 2251 DEB,1993-036AGU,2026-05-01T08:50:59.948160,14.38452443,0.00180279,74.0399,1.9817,64.9419,295.3604,0,U,35031,999,67291,0.00015493219,4.48e-06,0.0,Cosmos 2251 Debris
COSMOS 2251 DEB,1993-036AGV,2026-05-02T21:20:39.421824,14.59883272,0.00681577,73.8494,95.1473,274.6556,112.1485,0,U,35032,999,89733,0.00076112383,3.732e-05,0.0,Cosmos 2251 Debris
COSMOS 2251 DEB,1993-036AGW,2026-04-29T02:35:00.051936,14.51712207,0.00136995,74.0246,277.9072,352.9964,7.1003,0,U,35033,999,67920,0.00056626833,2.249e-05,0.0,Cosmos 2251 Debris
COSMOS 2251 DEB,1993-036AHB,2026-05-03T01:22:46.120800,14.2629556,0.01090775,74.1044,148.4662,97.9088,292.1445,0,U,35038,999,87583,0.0010205489,2.584e-05,0.0,Cosmos 2251 Debris
COSMOS 2251 DEB,1993-036AHG,2026-05-02T06:43:29.038944,14.84579355,0.00870885,73.9453,126.8274,296.5699,62.6573,0,U,35043,999,69499,0.0034012448,0.00030829,0.0,Cosmos 2251 Debris
COSMOS 2251 DEB,1993-036AHJ,2026-05-02T10:42:00.807552,14.00691277,0.01802749,73.7173,164.1412,24.6689,336.2931,0,U,35045,999,86613,0.00046487553,7.71e-06,0.0,Cosmos 2251 Debris
COSMOS 2251 DEB,1993-036AHP,2026-05-01T08:36:13.057344,14.41922274,0.00174194,74.0379,345.6321,40.9217,319.3243,0,U,35060,999,89254,0.00027707097,8.83e-06,0.0,Cosmos 2251 Debris
COSMOS 2251 DEB,1993-036AHQ,2026-05-02T17:26:00.286944,14.69007034,0.00396948,74.0473,33.1786,111.5259,249.015,0,U,35061,999,90644,0.00060987128,3.589e-05,0.0,Cosmos 2251 Debris
COSMOS 2251 DEB,1993-036AHR,2026-05-03T05:03:57.840768,14.2438851,0.01256036,74.0782,199.2595,164.2786,196.2319,0,U,35062,999,87512,0.0012033989,2.998e-05,0.0,Cosmos 2251 Debris
COSMOS 2251 DEB,1993-036AHU,2026-05-03T04:02:14.938080,14.46199963,0.00192745,74.0183,290.2104,23.1119,337.0902,0,U,35065,999,70395,0.00037281358,1.31e-05,0.0,Cosmos 2251 Debris
COSMOS 2251 DEB,1993-036AJA,2026-04-30T14:59:36.982176,15.06878427,0.00639559,73.9312,247.0469,109.6812,251.1294,0,U,35071,999,69626,0.00084943695,0.00013267,0.0,Cosmos 2251 Debris
COSMOS 2251 DEB,1993-036AJC,2026-04-23T13:28:38.142912,15.14556537,0.00156928,73.9894,58.8753,173.9925,186.146,0,U,35073,999,69465,0.0022446628,0.00041728,0.0,Cosmos 2251 Debris
COSMOS 2251 DEB,1993-036AJN,2026-05-02T22:22:45.775200,14.38473659,0.001572,74.0502,4.4217,49.3008,326.4286,0,U,35284,999,67556,0.00013502,3.87e-06,0.0,Cosmos 2251 Debris
COSMOS 2251 DEB,1993-036AJR,2026-05-02T22:50:49.293024,14.36494698,0.0017015,74.0323,16.6265,83.668,292.6211,0,U,35287,999,88920,0.0001079,2.91e-06,0.0,Cosmos 2251 Debris
COSMOS 2251 DEB,1993-036AJS,2026-05-02T05:14:28.887360,14.67277109,0.00384095,73.9472,102.9176,297.3754,62.3508,0,U,35288,999,89937,0.0013233204,7.521e-05,0.0,Cosmos 2251 Debris
COSMOS 2251 DEB,1993-036AJU,2026-05-03T07:14:19.993056,14.8516625,0.00081582,74.0008,138.7544,240.074,119.9629,0,U,35290,999,90056,0.0016052596,0.0001375,0.0,Cosmos 2251 Debris
COSMOS 2251 DEB,1993-036AKB,2026-05-03T05:34:18.355296,14.349793,0.00253419,74.0342,79.1481,104.5505,321.0699,0,U,35433,999,88610,0.00024185069,6.65e-06,0.0,Cosmos 2251 Debris
COSMOS 2251 DEB,1993-036AKC,2026-05-01T05:51:39.380256,14.26172979,0.0085762,74.0402,321.7227,359.7984,0.3114,0,U,35434,999,88106,0.0005051,1.231e-05,0.0,Cosmos 2251 Debris
COSMOS 2251 DEB,1993-036AKD,2026-05-02T10:59:42.977184,14.83045412,0.00113197,74.0089,186.0607,254.1086,123.1763,0,U,35435,999,89622,0.0016634026,0.00013542,0.0,Cosmos 2251 Debris
COSMOS 2251 DEB,1993-036AKH,2026-05-02T15:11:34.452096,13.93537331,0.0241357,74.0168,253.1573,31.1148,349.3267,0,U,35439,999,85923,0.00083997,1.378e-05,0.0,Cosmos 2251 Debris
COSMOS 2251 DEB,1993-036AKJ,2026-04-28T06:07:21.760608,14.6964392,0.0067995,74.0138,302.896,50.4624,310.2528,0,U,35440,999,70770,0.00040527,2.465e-05,0.0,Cosmos 2251 Debris
COSMOS 2251 DEB,1993-036AKK,2026-05-02T17:34:51.759264,14.64963537,0.00356693,74.1354,29.0123,236.4811,123.2949,0,U,35441,999,89493,0.0011421065,6.147e-05,0.0,Cosmos 2251 Debris
COSMOS 2251 DEB,1993-036AKL,2026-05-02T10:23:09.372768,14.91065862,0.00035336,74.024,178.3951,237.4176,122.6666,0,U,35442,999,89445,0.0017870922,0.00017712,0.0,Cosmos 2251 Debris
COSMOS 2251 DEB,1993-036AKM,2026-04-17T14:35:23.860320,15.13351893,0.00626004,73.9742,72.9924,188.9461,171.0624,0,U,35443,999,88771,0.0017719721,0.0003327,0.0,Cosmos 2251 Debris
COSMOS 2251 DEB,1993-036AKP,2026-05-02T17:01:51.085056,14.61790118,0.01386238,74.0383,30.6281,83.9806,277.7138,0,U,35445,999,89387,0.0013327324,7.608e-05,0.0,Cosmos 2251 Debris
COSMOS 2251 DEB,1993-036AKQ,2026-05-03T04:59:25.288512,14.54777581,0.00749292,74.0479,50.6618,133.8842,226.8544,0,U,35446,999,90065,8.8167763e-05,3.62e-06,0.0,Cosmos 2251 Debris
